FENGYUN 1C DEB          
1 33624U 99025DDH 17345.93065944  .00002818  00000-0  40074-3 0  9990
2 33624  98.2130  41.0599 0387627 246.9727 109.0147 14.37366600506178
